[{"OBJECT_NAME":"OBJECT V","OBJECT_ID":"2023-085V","EPOCH":"2026-03-09T21:44:00.165408","MEAN_MOTION":15.30745852,"ECCENTRICITY":0.00069081,"INCLINATION":97.4843,"RA_OF_ASC_NODE":179.3833,"ARG_OF_PERICENTER":71.0503,"MEAN_ANOMALY":289.1485,"EPHEMERIS_TYPE":0,"CLASSIFICATION_TYPE":"U","NORAD_CAT_ID":57023,"ELEMENT_SET_NO":999,"REV_AT_EPOCH":15149,"BSTAR":0.00067780507,"MEAN_MOTION_DOT":0.00020109,"MEAN_MOTION_DDOT":0},{"OBJECT_NAME":"STARLINK-35223","OBJECT_ID":"2025-198C","EPOCH":"2026-03-09T20:20:03.415200","MEAN_MOTION":15.30193495,"ECCENTRICITY":9.868e-5,"INCLINATION":53.1573,"RA_OF_ASC_NODE":270.3053,"ARG_OF_PERICENTER":89.3685,"MEAN_ANOMALY":270.7429,"EPHEMERIS_TYPE":0,"CLASSIFICATION_TYPE":"U","NORAD_CAT_ID":65494,"ELEMENT_SET_NO":999,"REV_AT_EPOCH":2864,"BSTAR":0.00079441967,"MEAN_MOTION_DOT":0.00023238,"MEAN_MOTION_DDOT":0}]
